ONEWEB-0037             
1 45440U 20020S   24001.55862819 -.00000172  00000+0 -52240-3 0  9999
2 45440  87.8951 199.4243 0001195  82.3634 277.7630 13.11416223185045
ONEWEB-0042             
1 45441U 20020T   24001.56661622 -.00000468  00000+0 -13573-2 0  9993
2 45441  87.8957 199.4445 0001267  95.0026 265.1246 13.11413845185010
ONEWEB-0055             
1 45443U 20020V   24001.62438359  .00000251  00000+0  67274-3 0  9997
2 45443  87.8956 199.4466 0001547  93.0689 267.0616 13.11413599184970
ONEWEB-0093             
1 45444U 20020W   24001.59759224  .00000309  00000+0  83481-3 0  9993
2 45444  87.8959 199.4304 0001588 100.9194 259.2113 13.11419424185035
ONEWEB-0029             
1 45445U 20020X   24001.61707043  .00000444  00000+0  12165-2 0  9999
2 45445  87.8957 199.4403 0001242  96.9458 263.1812 13.11416660185015
ONEWEB-0068             
1 45446U 20020Y   24001.59192152  .00000076  00000+0  17844-3 0  9997
2 45446  87.8960 199.4301 0001448  97.9388 262.1905 13.11421538184952
ONEWEB-0046             
1 45447U 20020Z   24001.58947075 -.00000017  00000+0 -83815-4 0  9998
2 45447  87.8959 199.4431 0001152  79.0816 281.0441 13.11411287184960
